{"type": "FeatureCollection", "features": [ {"type": "Feature", "properties": {"norad_id": 58662, "name": "TIANMU-1 21", "group": "weather", "lat": 20.42039537231213, "lon": 106.58398220779549, "alt_km": 474.74553598396596, "timestamp": "2025-12-21T22:41:41.091390+00:00", "meta": {"OBJECT_NAME": "TIANMU-1 21", "OBJECT_ID": "2023-208C", "EPOCH": "2025-12-21T13:11:51.944064", "MEAN_MOTION": 15.31724543, "ECCENTRICITY": 0.00062538, "INCLINATION": 97.4382, "RA_OF_ASC_NODE": 108.9748, "ARG_OF_PERICENTER": 223.2457, "MEAN_ANOMALY": 136.8294, "EPHEMERIS_TYPE": 0, "CLASSIFICATION_TYPE": "U", "NORAD_CAT_ID": 58662, "ELEMENT_SET_NO": 999, "REV_AT_EPOCH": 11034, "BSTAR": 0.00029652233, "MEAN_MOTION_DOT": 9.011e-05, "MEAN_MOTION_DDOT": 0}, "tle": {"line1": "1 58662U 23208C   25355.54990676  .00009011  00000+0  29652-3 0  9995", "line2": "2 58662  97.4382 108.9748 0006253 223.2457 136.8294 15.31724543110347"}}, "geometry": {"type": "Point", "coordinates": [106.58398220779549, 20.42039537231213]}}, {"type": "Feature", "properties": {"norad_id": 58663, "name": "TIANMU-1 22", "group": "weather", "lat": 8.164005765200097, "lon": -71.90567343374224, "alt_km": 483.7803718937239, "timestamp": "2025-12-21T22:41:41.091399+00:00", "meta": {"OBJECT_NAME": "TIANMU-1 22", "OBJECT_ID": "2023-208D", "EPOCH": "2025-12-21T14:05:08.771712", "MEAN_MOTION": 15.27741357, "ECCENTRICITY": 0.00028039, "INCLINATION": 97.4389, "RA_OF_ASC_NODE": 106.6624, "ARG_OF_PERICENTER": 240.1868, "MEAN_ANOMALY": 119.9093, "EPHEMERIS_TYPE": 0, "CLASSIFICATION_TYPE": "U", "NORAD_CAT_ID": 58663, "ELEMENT_SET_NO": 999, "REV_AT_EPOCH": 11018, "BSTAR": 0.00025751899, "MEAN_MOTION_DOT": 6.905e-05, "MEAN_MOTION_DDOT": 0}, "tle": {"line1": "1 58663U 23208D   25355.58690708  .00006905  00000+0  25752-3 0  9999", "line2": "2 58663  97.4389 106.6624 0002803 240.1868 119.9093 15.27741357110182"}}, "geometry": {"type": "Point", "coordinates": [-71.90567343374224, 8.164005765200097]}}, {"type": "Feature", "properties": {"norad_id": 58700, "name": "TIANMU-1 15", "group": "weather", "lat": -14.976008373053661, "lon": -4.628964775789918, "alt_km": 494.7600545165069, "timestamp": "2025-12-21T22:41:41.091409+00:00", "meta": {"OBJECT_NAME": "TIANMU-1 15", "OBJECT_ID": "2024-004A", "EPOCH": "2025-12-21T13:57:54.547776", "MEAN_MOTION": 15.24514134, "ECCENTRICITY": 0.00059783, "INCLINATION": 97.4621, "RA_OF_ASC_NODE": 177.0181, "ARG_OF_PERICENTER": 252.4648, "MEAN_ANOMALY": 107.5937, "EPHEMERIS_TYPE": 0, "CLASSIFICATION_TYPE": "U", "NORAD_CAT_ID": 58700, "ELEMENT_SET_NO": 999, "REV_AT_EPOCH": 10869, "BSTAR": 0.00023345442, "MEAN_MOTION_DOT": 5.672e-05, "MEAN_MOTION_DDOT": 0}, "tle": {"line1": "1 58700U 24004A   25355.58188134  .00005672  00000+0  23345-3 0  9997", "line2": "2 58700  97.4621 177.0181 0005978 252.4648 107.5937 15.24514134108692"}}, "geometry": {"type": "Point", "coordinates": [-4.628964775789918, -14.976008373053661]}}, {"type": "Feature", "properties": {"norad_id": 58701, "name": "TIANMU-1 16", "group": "weather", "lat": -79.47382746606682, "lon": -138.42285747554482, "alt_km": 496.7651879371888, "timestamp": "2025-12-21T22:41:41.091419+00:00", "meta": {"OBJECT_NAME": "TIANMU-1 16", "OBJECT_ID": "2024-004B", "EPOCH": "2025-12-21T15:10:48.227232", "MEAN_MOTION": 15.24541993, "ECCENTRICITY": 0.0004341, "INCLINATION": 97.4561, "RA_OF_ASC_NODE": 176.4501, "ARG_OF_PERICENTER": 255.5511, "MEAN_ANOMALY": 104.5245, "EPHEMERIS_TYPE": 0, "CLASSIFICATION_TYPE": "U", "NORAD_CAT_ID": 58701, "ELEMENT_SET_NO": 999, "REV_AT_EPOCH": 10870, "BSTAR": 0.0002231654, "MEAN_MOTION_DOT": 5.422e-05, "MEAN_MOTION_DDOT": 0}, "tle": {"line1": "1 58701U 24004B   25355.63250263  .00005422  00000+0  22317-3 0  9998", "line2": "2 58701  97.4561 176.4501 0004341 255.5511 104.5245 15.24541993108705"}}, "geometry": {"type": "Point", "coordinates": [-138.42285747554482, -79.47382746606682]}}, {"type": "Feature", "properties": {"norad_id": 58702, "name": "TIANMU-1 17", "group": "weather", "lat": 3.2797954111839833, "lon": 176.74622366559944, "alt_km": 495.39812294187595, "timestamp": "2025-12-21T22:41:41.091429+00:00", "meta": {"OBJECT_NAME": "TIANMU-1 17", "OBJECT_ID": "2024-004C", "EPOCH": "2025-12-21T14:48:15.282720", "MEAN_MOTION": 15.2458527, "ECCENTRICITY": 0.00035077, "INCLINATION": 97.4596, "RA_OF_ASC_NODE": 176.8491, "ARG_OF_PERICENTER": 257.1521, "MEAN_ANOMALY": 102.9325, "EPHEMERIS_TYPE": 0, "CLASSIFICATION_TYPE": "U", "NORAD_CAT_ID": 58702, "ELEMENT_SET_NO": 999, "REV_AT_EPOCH": 10869, "BSTAR": 0.00022096835, "MEAN_MOTION_DOT": 5.374e-05, "MEAN_MOTION_DDOT": 0}, "tle": {"line1": "1 58702U 24004C   25355.61684355  .00005374  00000+0  22097-3 0  9991", "line2": "2 58702  97.4596 176.8491 0003507 257.1521 102.9325 15.24585270108693"}}, "geometry": {"type": "Point", "coordinates": [176.74622366559944, 3.2797954111839833]}}, {"type": "Feature", "properties": {"norad_id": 58703, "name": "TIANMU-1 18", "group": "weather", "lat": 81.32258014925566, "lon": 56.54742082932331, "alt_km": 486.47759474956365, "timestamp": "2025-12-21T22:41:41.091439+00:00", "meta": {"OBJECT_NAME": "TIANMU-1 18", "OBJECT_ID": "2024-004D", "EPOCH": "2025-12-21T14:24:20.953728", "MEAN_MOTION": 15.24569745, "ECCENTRICITY": 0.00028631, "INCLINATION": 97.4613, "RA_OF_ASC_NODE": 177.0297, "ARG_OF_PERICENTER": 254.8514, "MEAN_ANOMALY": 105.2406, "EPHEMERIS_TYPE": 0, "CLASSIFICATION_TYPE": "U", "NORAD_CAT_ID": 58703, "ELEMENT_SET_NO": 999, "REV_AT_EPOCH": 10869, "BSTAR": 0.00022176639, "MEAN_MOTION_DOT": 5.391e-05, "MEAN_MOTION_DDOT": 0}, "tle": {"line1": "1 58703U 24004D   25355.60024252  .00005391  00000+0  22177-3 0  9993", "line2": "2 58703  97.4613 177.0297 0002863 254.8514 105.2406 15.24569745108696"}}, "geometry": {"type": "Point", "coordinates": [56.54742082932331, 81.32258014925566]}}, {"type": "Feature", "properties": {"norad_id": 58990, "name": "INSAT-3DS", "group": "weather", "lat": 0.05039961749868098, "lon": 153.26752169975094, "alt_km": 35788.38141910469, "timestamp": "2025-12-21T22:41:41.091450+00:00", "meta": {"OBJECT_NAME": "INSAT-3DS", "OBJECT_ID": "2024-033A", "EPOCH": "2025-12-21T13:35:15.512928", "MEAN_MOTION": 1.00272039, "ECCENTRICITY": 0.00011078, "INCLINATION": 0.0547, "RA_OF_ASC_NODE": 102.593, "ARG_OF_PERICENTER": 170.8885, "MEAN_ANOMALY": 102.8239, "EPHEMERIS_TYPE": 0, "CLASSIFICATION_TYPE": "U", "NORAD_CAT_ID": 58990, "ELEMENT_SET_NO": 999, "REV_AT_EPOCH": 4528, "BSTAR": 0, "MEAN_MOTION_DOT": -1.34e-06, "MEAN_MOTION_DDOT": 0}, "tle": {"line1": "1 58990U 24033A   25355.56615177 -.00000134  00000+0  00000+0 0  9998", "line2": "2 58990   0.0547 102.5930 0001107 170.8885 102.8239  1.00272039 45283"}}, "geometry": {"type": "Point", "coordinates": [153.26752169975094, 0.05039961749868098]}}, {"type": "Feature", "properties": {"norad_id": 59051, "name": "METEOR-M2 4", "group": "weather", "lat": 48.670293339411415, "lon": 142.71131297845824, "alt_km": 817.2425032059591, "timestamp": "2025-12-21T22:41:41.091501+00:00", "meta": {"OBJECT_NAME": "METEOR-M2 4", "OBJECT_ID": "2024-039A", "EPOCH": "2025-12-21T13:38:31.494912", "MEAN_MOTION": 14.22402531, "ECCENTRICITY": 0.00065775, "INCLINATION": 98.6779, "RA_OF_ASC_NODE": 312.3393, "ARG_OF_PERICENTER": 332.3591, "MEAN_ANOMALY": 27.7236, "EPHEMERIS_TYPE": 0, "CLASSIFICATION_TYPE": "U", "NORAD_CAT_ID": 59051, "ELEMENT_SET_NO": 999, "REV_AT_EPOCH": 9401, "BSTAR": 2.4280133e-05, "MEAN_MOTION_DOT": 1e-07, "MEAN_MOTION_DDOT": 0}, "tle": {"line1": "1 59051U 24039A   25355.56842008  .00000010  00000+0  24280-4 0  9991", "line2": "2 59051  98.6779 312.3393 0006577 332.3591  27.7236 14.22402531 94018"}}, "geometry": {"type": "Point", "coordinates": [142.71131297845824, 48.670293339411415]}}, {"type": "Feature", "properties": {"norad_id": 60133, "name": "GOES 19", "group": "weather", "lat": -0.009167806172825022, "lon": -4.019058391145591, "alt_km": 35784.58365952215, "timestamp": "2025-12-21T22:41:41.091520+00:00", "meta": {"OBJECT_NAME": "GOES 19", "OBJECT_ID": "2024-119A", "EPOCH": "2025-12-21T12:50:27.303072", "MEAN_MOTION": 1.00268483, "ECCENTRICITY": 7.217e-05, "INCLINATION": 0.0068, "RA_OF_ASC_NODE": 72.9985, "ARG_OF_PERICENTER": 247.5126, "MEAN_ANOMALY": 247.2657, "EPHEMERIS_TYPE": 0, "CLASSIFICATION_TYPE": "U", "NORAD_CAT_ID": 60133, "ELEMENT_SET_NO": 999, "REV_AT_EPOCH": 518, "BSTAR": 0, "MEAN_MOTION_DOT": -2.26e-06, "MEAN_MOTION_DDOT": 0}, "tle": {"line1": "1 60133U 24119A   25355.53503823 -.00000226  00000+0  00000+0 0  9998", "line2": "2 60133   0.0068  72.9985 0000721 247.5126 247.2657  1.00268483  5185"}}, "geometry": {"type": "Point", "coordinates": [-4.019058391145591, -0.009167806172825022]}}, {"type": "Feature", "properties": {"norad_id": 65815, "name": "FENGYUN 3H", "group": "weather", "lat": -71.23332116105387, "lon": -38.01455668393012, "alt_km": 833.476394346204, "timestamp": "2025-12-21T22:41:41.091531+00:00", "meta": {"OBJECT_NAME": "FENGYUN 3H", "OBJECT_ID": "2025-219A", "EPOCH": "2025-12-21T12:53:32.012448", "MEAN_MOTION": 14.19906846, "ECCENTRICITY": 7.531e-05, "INCLINATION": 98.6597, "RA_OF_ASC_NODE": 294.9369, "ARG_OF_PERICENTER": 106.0358, "MEAN_ANOMALY": 254.0901, "EPHEMERIS_TYPE": 0, "CLASSIFICATION_TYPE": "U", "NORAD_CAT_ID": 65815, "ELEMENT_SET_NO": 999, "REV_AT_EPOCH": 1217, "BSTAR": 4.6386634e-05, "MEAN_MOTION_DOT": 5.5e-07, "MEAN_MOTION_DDOT": 0}, "tle": {"line1": "1 65815U 25219A   25355.53717607  .00000055  00000+0  46387-4 0  9991", "line2": "2 65815  98.6597 294.9369 0000753 106.0358 254.0901 14.19906846 12171"}}, "geometry": {"type": "Point", "coordinates": [-38.01455668393012, -71.23332116105387]}}]}